ONEWEB-0246             
1 48786U 21045V   24112.36436339  .00000265  00000+0  67039-3 0  9992
2 48786  87.9033  55.7515 0001729  79.3830 280.7495 13.15547826140824
ONEWEB-0210             
1 48787U 21045W   24112.26293867  .00000071  00000+0  15510-3 0  9991
2 48787  87.9031  55.7775 0001165  69.2863 290.8392 13.15548843140850
ONEWEB-0214             
1 48788U 21045X   24112.34851482  .00000144  00000+0  34890-3 0  9997
2 48788  87.9029  55.7493 0001278  73.1464 286.9806 13.15548413140838
ONEWEB-0221             
1 48789U 21045Y   24112.35485165  .00000207  00000+0  51706-3 0  9995
2 48789  87.9032  55.7645 0001746  88.9941 271.1389 13.15549976140923
ONEWEB-0213             
1 48790U 21045Z   24112.34376436  .00000042  00000+0  76742-4 0  9991
2 48790  87.9032  55.7812 0001632  88.7827 271.3491 13.15548331140982
ONEWEB-0212             
1 48791U 21045AA  24112.39684327 -.00000058  00000+0 -18750-3 0  9991
2 48791  87.9035  55.7520 0002039  81.7335 278.4027 13.15548267140982
ONEWEB-0227             
1 48792U 21045AB  24112.39604932 -.00000068  00000+0 -21351-3 0  9998
2 48792  87.9034  55.7684 0001860  83.2839 276.8503 13.15549218140933
